{
    "links": {
        "self": "http://www.neowsapp.com/rest/v1/neo/3552533?api_key=iIulBulltgU6a56xZRHN4H3l9WmuAYTsLGpBGhQ2"
    },
    "id": "3552533",
    "neo_reference_id": "3552533",
    "name": "(2010 WG1)",
    "designation": "2010 WG1",
    "nasa_jpl_url": "http://ssd.jpl.nasa.gov/sbdb.cgi?sstr=3552533",
    "absolute_magnitude_h": 23.0,
    "estimated_diameter": {
        "kilometers": {
            "estimated_diameter_min": 0.0667659413,
            "estimated_diameter_max": 0.1492931834
        },
        "meters": {
            "estimated_diameter_min": 66.7659413495,
            "estimated_diameter_max": 149.2931834393
        },
        "miles": {
            "estimated_diameter_min": 0.0414864197,
            "estimated_diameter_max": 0.0927664547
        },
        "feet": {
            "estimated_diameter_min": 219.0483710172,
            "estimated_diameter_max": 489.807047955
        }
    },
    "is_potentially_hazardous_asteroid": false,
    "close_approach_data": [
        {
            "close_approach_date": "2010-12-09",
            "close_approach_date_full": "2010-Dec-09 00:12",
            "epoch_date_close_approach": 1291853520000,
            "relative_velocity": {
                "kilometers_per_second": "19.7715537422",
                "kilometers_per_hour": "71177.593472064",
                "miles_per_hour": "44226.9885660167"
            },
            "miss_distance": {
                "astronomical": "0.102514113",
                "lunar": "39.877989957",
                "kilometers": "15335892.94973931",
                "miles": "9529282.000290078"
            },
            "orbiting_body": "Earth"
        },
        {
            "close_approach_date": "2011-02-24",
            "close_approach_date_full": "2011-Feb-24 22:59",
            "epoch_date_close_approach": 1298588340000,
            "relative_velocity": {
                "kilometers_per_second": "22.5781359326",
                "kilometers_per_hour": "81281.2893573708",
                "miles_per_hour": "50505.0322676397"
            },
            "miss_distance": {
                "astronomical": "0.1144067455",
                "lunar": "44.5042239995",
                "kilometers": "17115005.440432085",
                "miles": "10634771.239789373"
            },
            "orbiting_body": "Venus"
        }
    ],
    "orbital_data": {
        "orbit_id": "9",
        "orbit_determination_date": "2017-04-06 08:55:36",
        "first_observation_date": "2010-11-27",
        "last_observation_date": "2010-11-28",
        "data_arc_in_days": 1,
        "observations_used": 21,
        "orbit_uncertainty": "9",
        "minimum_orbit_intersection": ".0440182",
        "jupiter_tisserand_invariant": "3.604",
        "epoch_osculation": "2455528.5",
        "eccentricity": ".6740806967862771",
        "semi_major_axis": "1.882776213170538",
        "inclination": "19.02322834102795",
        "ascending_node_longitude": "242.5150231256107",
        "orbital_period": "943.6185745484639",
        "perihelion_distance": ".6136331115039134",
        "perihelion_argument": "279.7905307415173",
        "aphelion_distance": "3.151919314837162",
        "perihelion_time": "2455588.974528004711",
        "mean_anomaly": "336.928357846163",
        "mean_motion": ".3815100822620682",
        "equinox": "J2000",
        "orbit_class": {
            "orbit_class_type": "APO",
            "orbit_class_description": "Near-Earth asteroid orbits which cross the Earth’s orbit similar to that of 1862 Apollo",
            "orbit_class_range": "a (semi-major axis) > 1.0 AU; q (perihelion) < 1.017 AU"
        }
    },
    "is_sentry_object": false
}